SL-14 R/B               
1 16792U 86046B   26013.77734346  .00000376  00000+0  40450-4 0  9994
2 16792  82.4834 132.0595 0024253  51.9443 308.3957 14.85526673118252
SL-14 R/B               
1 16882U 86055B   26013.69785085  .00000439  00000+0  47832-4 0  9992
2 16882  82.5205 178.3419 0019642 150.3601 220.5740 14.85570178111201
AJISAI (EGS)            
1 16908U 86061A   26013.97375000 -.00000075  00000+0  15681-3 0  9994
2 16908  50.0083 261.6014 0011306 146.8524  46.1910 12.44514895461187
COSMOS 1812             
1 17295U 87003A   26013.72741786  .00111012  00000+0  49819-3 0  9995
2 17295  82.4836 257.1920 0002942  48.2324 311.9196 15.83804006135704
SL-14 R/B               
1 17567U 87024B   26013.76337346  .00000417  00000+0  44727-4 0  9997
2 17567  82.5298 144.3727 0019729  83.4071 276.9391 14.86066612 79970
COSMOS 1833             
1 17589U 87027A   26013.64437399  .00000301  00000+0  18673-3 0  9992
2 17589  70.9191  81.7130 0024050 287.6926  72.1569 14.13042956  2546
SL-16 R/B               
1 17590U 87027B   26013.98920275  .00000011  00000+0  29154-4 0  9996
2 17590  71.0032  31.7608 0006509 225.2850 134.7745 14.17160392  7592
SL-14 R/B               
1 17912U 87038B   26013.86477445  .00000429  00000+0  47071-4 0  9990
2 17912  82.5023 348.4395 0019019 350.8156   9.2709 14.85299747 71096
COSMOS 1844             
1 17973U 87041A   26013.73759045 -.00000212  00000+0 -84830-4 0  9992
2 17973  70.8996 150.0835 0028311 106.1591 254.2651 14.14538362995812
SL-14 R/B               
1 18153U 87055B   26013.51431850  .00000340  00000+0  36454-4 0  9994
2 18153  82.4978  41.0371 0020310 191.8189 168.2553 14.85557496 61749
COSMOS 1867             
1 18187U 87060A   26013.66962597 -.00000052  00000+0  18073-4 0  9998
2 18187  65.0111 100.7871 0013834 274.2270  85.7233 14.31492527 12063
SL-14 R/B               
1 18749U 88001B   26013.97751727  .00000329  00000+0  35156-4 0  9990
2 18749  82.5115 246.8267 0019447  61.5424 298.7748 14.85460657 33901
