CCSDS_OMM_VERS = 2.0
CREATION_DATE  = 
ORIGINATOR     = 

OBJECT_NAME    = SL-14 R/B
OBJECT_ID      = 1986-046B
CENTER_NAME    = EARTH
REF_FRAME      = TEME
TIME_SYSTEM    = UTC
MEAN_ELEMENT_THEORY = SGP/SGP4

EPOCH          = 2026-01-13T18:39:22.474944
MEAN_MOTION    = 14.85526673
ECCENTRICITY   = .00242531
INCLINATION    = 82.4834
RA_OF_ASC_NODE = 132.0595
ARG_OF_PERICENTER = 51.9443
MEAN_ANOMALY   = 308.3957

EPHEMERIS_TYPE = 0
CLASSIFICATION_TYPE = U
NORAD_CAT_ID   = 16792
ELEMENT_SET_NO = 999
REV_AT_EPOCH   = 11825
BSTAR          = .40449813E-4
MEAN_MOTION_DOT = .376E-5
MEAN_MOTION_DDOT = 0

CCSDS_OMM_VERS = 2.0
CREATION_DATE  = 
ORIGINATOR     = 

OBJECT_NAME    = SL-14 R/B
OBJECT_ID      = 1986-055B
CENTER_NAME    = EARTH
REF_FRAME      = TEME
TIME_SYSTEM    = UTC
MEAN_ELEMENT_THEORY = SGP/SGP4

EPOCH          = 2026-01-13T16:44:54.313440
MEAN_MOTION    = 14.85570178
ECCENTRICITY   = .0019642
INCLINATION    = 82.5205
RA_OF_ASC_NODE = 178.3419
ARG_OF_PERICENTER = 150.3601
MEAN_ANOMALY   = 220.5740

EPHEMERIS_TYPE = 0
CLASSIFICATION_TYPE = U
NORAD_CAT_ID   = 16882
ELEMENT_SET_NO = 999
REV_AT_EPOCH   = 11120
BSTAR          = .47832431E-4
MEAN_MOTION_DOT = .439E-5
MEAN_MOTION_DDOT = 0

CCSDS_OMM_VERS = 2.0
CREATION_DATE  = 
ORIGINATOR     = 

OBJECT_NAME    = AJISAI (EGS)
OBJECT_ID      = 1986-061A
CENTER_NAME    = EARTH
REF_FRAME      = TEME
TIME_SYSTEM    = UTC
MEAN_ELEMENT_THEORY = SGP/SGP4

EPOCH          = 2026-01-13T23:22:12.000000
MEAN_MOTION    = 12.44514895
ECCENTRICITY   = .00113062
INCLINATION    = 50.0083
RA_OF_ASC_NODE = 261.6014
ARG_OF_PERICENTER = 146.8524
MEAN_ANOMALY   = 46.1910

EPHEMERIS_TYPE = 0
CLASSIFICATION_TYPE = U
NORAD_CAT_ID   = 16908
ELEMENT_SET_NO = 999
REV_AT_EPOCH   = 46118
BSTAR          = .15680887E-3
MEAN_MOTION_DOT = -.75E-6
MEAN_MOTION_DDOT = 0

CCSDS_OMM_VERS = 2.0
CREATION_DATE  = 
ORIGINATOR     = 

OBJECT_NAME    = COSMOS 1812
OBJECT_ID      = 1987-003A
CENTER_NAME    = EARTH
REF_FRAME      = TEME
TIME_SYSTEM    = UTC
MEAN_ELEMENT_THEORY = SGP/SGP4

EPOCH          = 2026-01-13T17:27:28.903104
MEAN_MOTION    = 15.83804006
ECCENTRICITY   = .00029423
INCLINATION    = 82.4836
RA_OF_ASC_NODE = 257.1920
ARG_OF_PERICENTER = 48.2324
MEAN_ANOMALY   = 311.9196

EPHEMERIS_TYPE = 0
CLASSIFICATION_TYPE = U
NORAD_CAT_ID   = 17295
ELEMENT_SET_NO = 999
REV_AT_EPOCH   = 13570
BSTAR          = .49819026E-3
MEAN_MOTION_DOT = .111012E-2
MEAN_MOTION_DDOT = 0

CCSDS_OMM_VERS = 2.0
CREATION_DATE  = 
ORIGINATOR     = 

OBJECT_NAME    = SL-14 R/B
OBJECT_ID      = 1987-024B
CENTER_NAME    = EARTH
REF_FRAME      = TEME
TIME_SYSTEM    = UTC
MEAN_ELEMENT_THEORY = SGP/SGP4

EPOCH          = 2026-01-13T18:19:15.466944
MEAN_MOTION    = 14.86066612
ECCENTRICITY   = .00197299
INCLINATION    = 82.5298
RA_OF_ASC_NODE = 144.3727
ARG_OF_PERICENTER = 83.4071
MEAN_ANOMALY   = 276.9391

EPHEMERIS_TYPE = 0
CLASSIFICATION_TYPE = U
NORAD_CAT_ID   = 17567
ELEMENT_SET_NO = 999
REV_AT_EPOCH   = 7997
BSTAR          = .4472698E-4
MEAN_MOTION_DOT = .417E-5
MEAN_MOTION_DDOT = 0

CCSDS_OMM_VERS = 2.0
CREATION_DATE  = 
ORIGINATOR     = 

OBJECT_NAME    = COSMOS 1833
OBJECT_ID      = 1987-027A
CENTER_NAME    = EARTH
REF_FRAME      = TEME
TIME_SYSTEM    = UTC
MEAN_ELEMENT_THEORY = SGP/SGP4

EPOCH          = 2026-01-13T15:27:53.912736
MEAN_MOTION    = 14.13042956
ECCENTRICITY   = .00240507
INCLINATION    = 70.9191
RA_OF_ASC_NODE = 81.7130
ARG_OF_PERICENTER = 287.6926
MEAN_ANOMALY   = 72.1569

EPHEMERIS_TYPE = 0
CLASSIFICATION_TYPE = U
NORAD_CAT_ID   = 17589
ELEMENT_SET_NO = 999
REV_AT_EPOCH   = 254
BSTAR          = .18673307E-3
MEAN_MOTION_DOT = .301E-5
MEAN_MOTION_DDOT = 0

CCSDS_OMM_VERS = 2.0
CREATION_DATE  = 
ORIGINATOR     = 

OBJECT_NAME    = SL-16 R/B
OBJECT_ID      = 1987-027B
CENTER_NAME    = EARTH
REF_FRAME      = TEME
TIME_SYSTEM    = UTC
MEAN_ELEMENT_THEORY = SGP/SGP4

EPOCH          = 2026-01-13T23:44:27.117600
MEAN_MOTION    = 14.17160392
ECCENTRICITY   = .00065098
INCLINATION    = 71.0032
RA_OF_ASC_NODE = 31.7608
ARG_OF_PERICENTER = 225.2850
MEAN_ANOMALY   = 134.7745

EPHEMERIS_TYPE = 0
CLASSIFICATION_TYPE = U
NORAD_CAT_ID   = 17590
ELEMENT_SET_NO = 999
REV_AT_EPOCH   = 759
BSTAR          = .2915362E-4
MEAN_MOTION_DOT = .11E-6
MEAN_MOTION_DDOT = 0

CCSDS_OMM_VERS = 2.0
CREATION_DATE  = 
ORIGINATOR     = 

OBJECT_NAME    = SL-14 R/B
OBJECT_ID      = 1987-038B
CENTER_NAME    = EARTH
REF_FRAME      = TEME
TIME_SYSTEM    = UTC
MEAN_ELEMENT_THEORY = SGP/SGP4

EPOCH          = 2026-01-13T20:45:16.512480
MEAN_MOTION    = 14.85299747
ECCENTRICITY   = .00190195
INCLINATION    = 82.5023
RA_OF_ASC_NODE = 348.4395
ARG_OF_PERICENTER = 350.8156
MEAN_ANOMALY   = 9.2709

EPHEMERIS_TYPE = 0
CLASSIFICATION_TYPE = U
NORAD_CAT_ID   = 17912
ELEMENT_SET_NO = 999
REV_AT_EPOCH   = 7109
BSTAR          = .4707075E-4
MEAN_MOTION_DOT = .429E-5
MEAN_MOTION_DDOT = 0

CCSDS_OMM_VERS = 2.0
CREATION_DATE  = 
ORIGINATOR     = 

OBJECT_NAME    = COSMOS 1844
OBJECT_ID      = 1987-041A
CENTER_NAME    = EARTH
REF_FRAME      = TEME
TIME_SYSTEM    = UTC
MEAN_ELEMENT_THEORY = SGP/SGP4

EPOCH          = 2026-01-13T17:42:07.814880
MEAN_MOTION    = 14.14538362
ECCENTRICITY   = .00283118
INCLINATION    = 70.8996
RA_OF_ASC_NODE = 150.0835
ARG_OF_PERICENTER = 106.1591
MEAN_ANOMALY   = 254.2651

EPHEMERIS_TYPE = 0
CLASSIFICATION_TYPE = U
NORAD_CAT_ID   = 17973
ELEMENT_SET_NO = 999
REV_AT_EPOCH   = 99581
BSTAR          = -.84829769E-4
MEAN_MOTION_DOT = -.212E-5
MEAN_MOTION_DDOT = 0

CCSDS_OMM_VERS = 2.0
CREATION_DATE  = 
ORIGINATOR     = 

OBJECT_NAME    = SL-14 R/B
OBJECT_ID      = 1987-055B
CENTER_NAME    = EARTH
REF_FRAME      = TEME
TIME_SYSTEM    = UTC
MEAN_ELEMENT_THEORY = SGP/SGP4

EPOCH          = 2026-01-13T12:20:37.118400
MEAN_MOTION    = 14.85557496
ECCENTRICITY   = .00203102
INCLINATION    = 82.4978
RA_OF_ASC_NODE = 41.0371
ARG_OF_PERICENTER = 191.8189
MEAN_ANOMALY   = 168.2553

EPHEMERIS_TYPE = 0
CLASSIFICATION_TYPE = U
NORAD_CAT_ID   = 18153
ELEMENT_SET_NO = 999
REV_AT_EPOCH   = 6174
BSTAR          = .36454167E-4
MEAN_MOTION_DOT = .34E-5
MEAN_MOTION_DDOT = 0

CCSDS_OMM_VERS = 2.0
CREATION_DATE  = 
ORIGINATOR     = 

OBJECT_NAME    = COSMOS 1867
OBJECT_ID      = 1987-060A
CENTER_NAME    = EARTH
REF_FRAME      = TEME
TIME_SYSTEM    = UTC
MEAN_ELEMENT_THEORY = SGP/SGP4

EPOCH          = 2026-01-13T16:04:15.683808
MEAN_MOTION    = 14.31492527
ECCENTRICITY   = .00138345
INCLINATION    = 65.0111
RA_OF_ASC_NODE = 100.7871
ARG_OF_PERICENTER = 274.2270
MEAN_ANOMALY   = 85.7233

EPHEMERIS_TYPE = 0
CLASSIFICATION_TYPE = U
NORAD_CAT_ID   = 18187
ELEMENT_SET_NO = 999
REV_AT_EPOCH   = 1206
BSTAR          = .18073374E-4
MEAN_MOTION_DOT = -.52E-6
MEAN_MOTION_DDOT = 0

CCSDS_OMM_VERS = 2.0
CREATION_DATE  = 
ORIGINATOR     = 

OBJECT_NAME    = SL-14 R/B
OBJECT_ID      = 1988-001B
CENTER_NAME    = EARTH
REF_FRAME      = TEME
TIME_SYSTEM    = UTC
MEAN_ELEMENT_THEORY = SGP/SGP4

EPOCH          = 2026-01-13T23:27:37.492128
MEAN_MOTION    = 14.85460657
ECCENTRICITY   = .00194472
INCLINATION    = 82.5115
RA_OF_ASC_NODE = 246.8267
ARG_OF_PERICENTER = 61.5424
MEAN_ANOMALY   = 298.7748

EPHEMERIS_TYPE = 0
CLASSIFICATION_TYPE = U
NORAD_CAT_ID   = 18749
ELEMENT_SET_NO = 999
REV_AT_EPOCH   = 3390
BSTAR          = .35156449E-4
MEAN_MOTION_DOT = .329E-5
MEAN_MOTION_DDOT = 0

